#dV2019  9 13  0  0  0.00000000    8640 U+u   IGS14 FIT TUD 
## 2070 432000.00000000    10.00000000 58739 0.0000000000000
+    1   L47  0  0  0  0  0  0  0  0  0  0  0  0  0  0  0  0                          
+          0  0  0  0  0  0  0  0  0  0  0  0  0  0  0  0  0                          
+          0  0  0  0  0  0  0  0  0  0  0  0  0  0  0  0  0                          
+          0  0  0  0  0  0  0  0  0  0  0  0  0  0  0  0  0                          
+          0  0  0  0  0  0  0  0  0  0  0  0  0  0  0  0  0                          
++         0  0  0  0  0  0  0  0  0  0  0  0  0  0  0  0  0                          
++         0  0  0  0  0  0  0  0  0  0  0  0  0  0  0  0  0                          
++         0  0  0  0  0  0  0  0  0  0  0  0  0  0  0  0  0                          
++         0  0  0  0  0  0  0  0  0  0  0  0  0  0  0  0  0                          
++         0  0  0  0  0  0  0  0  0  0  0  0  0  0  0  0  0                          
%c M  cc GPS ccc cccc cccc cccc cccc ccccc ccccc ccccc ccccc                          
%c cc cc ccc ccc cccc cccc cccc cccc ccccc ccccc ccccc ccccc                          
%f  0.0000000  0.000000000  0.00000000000  0.000000000000000                          
%f  0.0000000  0.000000000  0.00000000000  0.000000000000000                          
%i    0    0    0    0      0      0      0      0         0                          
%i    0    0    0    0      0      0      0      0         0                          
/* Created by: RDOD_AR_WGT                                                            
/* Setup     : SWARMA.19.256_RDOD_AR.inp                                              
/* Executed  : 10-May-2021 13:04 UTC, by swarmgen@euclid2.lr.tudelft.nl               
/*                                                                                    
*  2019 09 13 14 54 40.00000000                             
PL47 -6209.4948030 -1647.1121599  2266.9527079 999999.999999
VL47-24936.3556263 -5650.5430812-72025.8298631 999999.999999
*  2019 09 13 14 54 50.00000000                             
PL47 -6234.0446790 -1652.6411322  2194.7849963 999999.999999
VL47-24162.8240839 -5407.4741994-72308.0711587 999999.999999
*  2019 09 13 14 55 00.00000000                             
PL47 -6257.8193233 -1657.9272593  2122.3396156 999999.999999
VL47-23385.9089127 -5164.8583984-72581.1624583 999999.999999
*  2019 09 13 14 55 10.00000000                             
PL47 -6280.8154021 -1662.9710116  2049.6257330 999999.999999
VL47-22605.7096659 -4922.7304374-72845.0691196 999999.999999
*  2019 09 13 14 55 20.00000000                             
PL47 -6303.0296811 -1667.7728949  1976.6525500 999999.999999
VL47-21822.3258929 -4681.1266054-73099.7576700 999999.999999
*  2019 09 13 14 55 30.00000000                             
PL47 -6324.4590258 -1672.3334513  1903.4293011 999999.999999
VL47-21035.8578554 -4440.0820248-73345.1958100 999999.999999
*  2019 09 13 14 55 40.00000000                             
PL47 -6345.1004023 -1676.6532569  1829.9652523 999999.999999
VL47-20246.4063554 -4199.6312769-73581.3524221 999999.999999
*  2019 09 13 14 55 50.00000000                             
PL47 -6364.9508777 -1680.7329233  1756.2697001 999999.999999
VL47-19454.0725258 -3959.8091477-73808.1975790 999999.999999
*  2019 09 13 14 56 00.00000000                             
PL47 -6384.0076204 -1684.5730964  1682.3519705 999999.999999
VL47-18658.9578155 -3720.6506415-74025.7025501 999999.999999
*  2019 09 13 14 56 10.00000000                             
PL47 -6402.2679004 -1688.1744573  1608.2214176 999999.999999
VL47-17861.1641816 -3482.1902005-74233.8398081 999999.999999
*  2019 09 13 14 56 20.00000000                             
PL47 -6419.7290900 -1691.5377206  1533.8874223 999999.999999
VL47-17060.7942481 -3244.4610465-74432.5830353 999999.999999
*  2019 09 13 14 56 30.00000000                             
PL47 -6436.3886643 -1694.6636348  1459.3593912 999999.999999
VL47-16257.9505648 -3007.4979340-74621.9071274 999999.999999
*  2019 09 13 14 56 40.00000000                             
PL47 -6452.2442009 -1697.5529830  1384.6467557 999999.999999
VL47-15452.7362965 -2771.3344966-74801.7881964 999999.999999
*  2019 09 13 14 56 50.00000000                             
PL47 -6467.2933813 -1700.2065812  1309.7589701 999999.999999
VL47-14645.2552171 -2536.0032326-74972.2035788 999999.999999
*  2019 09 13 14 57 00.00000000                             
PL47 -6481.5339903 -1702.6252782  1234.7055109 999999.999999
VL47-13835.6109975 -2301.5381681-75133.1318485 999999.999999
*  2019 09 13 14 57 10.00000000                             
PL47 -6494.9639170 -1704.8099572  1159.4958755 999999.999999
VL47-13023.9079179 -2067.9720721-75284.5528326 999999.999999
*  2019 09 13 14 57 20.00000000                             
PL47 -6507.5811548 -1706.7615327  1084.1395807 999999.999999
VL47-12210.2506710 -1835.3370998-75426.4476223 999999.999999
*  2019 09 13 14 57 30.00000000                             
PL47 -6519.3838019 -1708.4809525  1008.6461616 999999.999999
VL47-11394.7441305 -1603.6655609-75558.7985763 999999.999999
*  2019 09 13 14 57 40.00000000                             
PL47 -6530.3700616 -1709.9691958   933.0251703 999999.999999
VL47-10577.4933242 -1372.9899251-75681.5893171 999999.999999
*  2019 09 13 14 57 50.00000000                             
PL47 -6540.5382422 -1711.2272749   857.2861747 999999.999999
VL47 -9758.6036221 -1143.3420277-75794.8047235 999999.999999
*  2019 09 13 14 58 00.00000000                             
PL47 -6549.8867578 -1712.2562326   781.4387572 999999.999999
VL47 -8938.1808982  -914.7524026-75898.4309241 999999.999999
*  2019 09 13 14 58 10.00000000                             
PL47 -6558.4141282 -1713.0571432   705.4925135 999999.999999
VL47 -8116.3307861  -687.2530968-75992.4552964 999999.999999
*  2019 09 13 14 58 20.00000000                             
PL47 -6566.1189790 -1713.6311126   629.4570511 999999.999999
VL47 -7293.1593769  -460.8749648-76076.8664731 999999.999999
*  2019 09 13 14 58 30.00000000                             
PL47 -6573.0000421 -1713.9792767   553.3419883 999999.999999
VL47 -6468.7732038  -235.6476584-76151.6543489 999999.999999
*  2019 09 13 14 58 40.00000000                             
PL47 -6579.0561559 -1714.1028019   477.1569531 999999.999999
VL47 -5643.2785116   -11.6023412-76216.8100845 999999.999999
*  2019 09 13 14 58 50.00000000                             
PL47 -6584.2862651 -1714.0028854   400.9115814 999999.999999
VL47 -4816.7819758   211.2311416-76272.3261039 999999.999999
*  2019 09 13 14 59 00.00000000                             
PL47 -6588.6894215 -1713.6807533   324.6155162 999999.999999
VL47 -3989.3905141   432.8236015-76318.1960911 999999.999999
*  2019 09 13 14 59 10.00000000                             
PL47 -6592.2647835 -1713.1376616   248.2784063 999999.999999
VL47 -3161.2110692   653.1457175-76354.4149894 999999.999999
*  2019 09 13 14 59 20.00000000                             
PL47 -6595.0116167 -1712.3748951   171.9099046 999999.999999
VL47 -2332.3505963   872.1680379-76380.9790047 999999.999999
*  2019 09 13 14 59 30.00000000                             
PL47 -6596.9292934 -1711.3937684    95.5196674 999999.999999
VL47 -1502.9162540  1089.8617805-76397.8856080 999999.999999
*  2019 09 13 14 59 40.00000000                             
PL47 -6598.0172937 -1710.1956236    19.1173529 999999.999999
VL47  -673.0155587  1306.1995071-76405.1335372 999999.999999
*  2019 09 13 14 59 50.00000000                             
PL47 -6598.2752048 -1708.7818310   -57.2873801 999999.999999
VL47   157.2443718  1521.1522865-76402.7227960 999999.999999
*  2019 09 13 15 00 00.00000000                             
PL47 -6597.7027210 -1707.1537899  -133.6848735 999999.999999
VL47   987.7561298  1734.6924272-76390.6546486 999999.999999
*  2019 09 13 15 00 10.00000000                             
PL47 -6596.2996445 -1705.3129259  -210.0654711 999999.999999
VL47  1818.4120335  1946.7934810-76368.9316123 999999.999999
*  2019 09 13 15 00 20.00000000                             
PL47 -6594.0658847 -1703.2606919  -286.4195197 999999.999999
VL47  2649.1048425  2157.4275169-76337.5574502 999999.999999
*  2019 09 13 15 00 30.00000000                             
PL47 -6591.0014583 -1700.9985687  -362.7373706 999999.999999
VL47  3479.7270259  2366.5679651-76296.5371664 999999.999999
*  2019 09 13 15 00 40.00000000                             
PL47 -6587.1064900 -1698.5280625  -439.0093807 999999.999999
VL47  4310.1709377  2574.1889522-76245.8770102 999999.999999
*  2019 09 13 15 00 50.00000000                             
PL47 -6582.3812117 -1695.8507059  -515.2259138 999999.999999
VL47  5140.3290326  2780.2645103-76185.5844906 999999.999999
*  2019 09 13 15 01 00.00000000                             
PL47 -6576.8259630 -1692.9680573  -591.3773418 999999.999999
VL47  5970.0938853  2984.7685869-76115.6683877 999999.999999
*  2019 09 13 15 01 10.00000000                             
PL47 -6570.4411909 -1689.8817010  -667.4540461 999999.999999
VL47  6799.3580176  3187.6758406-76036.1387579 999999.999999
*  2019 09 13 15 01 20.00000000                             
PL47 -6563.2274498 -1686.5932459  -743.4464186 999999.999999
VL47  7628.0137580  3388.9623093-75947.0069269 999999.999999
*  2019 09 13 15 01 30.00000000                             
PL47 -6555.1854019 -1683.1043252  -819.3448634 999999.999999
VL47  8455.9539919  3588.6025863-75848.2854765 999999.999999
*  2019 09 13 15 01 40.00000000                             
PL47 -6546.3158161 -1679.4165975  -895.1397976 999999.999999
VL47  9283.0714770  3786.5725410-75739.9882310 999999.999999
*  2019 09 13 15 01 50.00000000                             
PL47 -6536.6195689 -1675.5317445  -970.8216529 999999.999999
VL47 10109.2588565  3982.8493153-75622.1302481 999999.999999
EOF                                                         
